{"type": "FeatureCollection", "features": [ {"type": "Feature", "properties": {"norad_id": 41335, "name": "SENTINEL-3A", "group": "resource", "lat": -80.16184848187724, "lon": 110.68355053789766, "alt_km": 810.6417442710726, "timestamp": "2025-12-10T14:53:36.779905+00:00", "meta": {"OBJECT_NAME": "SENTINEL-3A", "OBJECT_ID": "2016-011A", "EPOCH": "2025-12-10T06:52:37.713504", "MEAN_MOTION": 14.26745193, "ECCENTRICITY": 9.516e-05, "INCLINATION": 98.621, "RA_OF_ASC_NODE": 49.3307, "ARG_OF_PERICENTER": 93.5833, "MEAN_ANOMALY": 266.5456, "EPHEMERIS_TYPE": 0, "CLASSIFICATION_TYPE": "U", "NORAD_CAT_ID": 41335, "ELEMENT_SET_NO": 999, "REV_AT_EPOCH": 51112, "BSTAR": 0.00011674176, "MEAN_MOTION_DOT": 2.39e-06, "MEAN_MOTION_DDOT": 0}, "tle": {"line1": "1 41335U 16011A   25344.28654761  .00000239  00000+0  11674-3 0  9997", "line2": "2 41335  98.6210  49.3307 0000951  93.5833 266.5456 14.26745193511122"}}, "geometry": {"type": "Point", "coordinates": [110.68355053789766, -80.16184848187724]}}, {"type": "Feature", "properties": {"norad_id": 41556, "name": "ZIYUAN 3-2 (ZY 3-2)", "group": "resource", "lat": 24.620220368736547, "lon": 55.405655044398564, "alt_km": 506.0779982742906, "timestamp": "2025-12-10T14:53:36.779914+00:00", "meta": {"OBJECT_NAME": "ZIYUAN 3-2 (ZY 3-2)", "OBJECT_ID": "2016-033A", "EPOCH": "2025-12-10T06:53:32.346816", "MEAN_MOTION": 15.21445063, "ECCENTRICITY": 0.00124268, "INCLINATION": 97.4041, "RA_OF_ASC_NODE": 58.4942, "ARG_OF_PERICENTER": 258.6129, "MEAN_ANOMALY": 101.3711, "EPHEMERIS_TYPE": 0, "CLASSIFICATION_TYPE": "U", "NORAD_CAT_ID": 41556, "ELEMENT_SET_NO": 999, "REV_AT_EPOCH": 52926, "BSTAR": 0.00051328555, "MEAN_MOTION_DOT": 0.00011493, "MEAN_MOTION_DDOT": 0}, "tle": {"line1": "1 41556U 16033A   25344.28717994  .00011493  00000+0  51329-3 0  9999", "line2": "2 41556  97.4041  58.4942 0012426 258.6129 101.3711 15.21445063529267"}}, "geometry": {"type": "Point", "coordinates": [55.405655044398564, 24.620220368736547]}}, {"type": "Feature", "properties": {"norad_id": 41599, "name": "CARTOSAT-2C", "group": "resource", "lat": -14.621849628170411, "lon": 43.855737328426095, "alt_km": 512.292014558313, "timestamp": "2025-12-10T14:53:36.779923+00:00", "meta": {"OBJECT_NAME": "CARTOSAT-2C", "OBJECT_ID": "2016-040A", "EPOCH": "2025-12-10T07:03:16.754688", "MEAN_MOTION": 15.19253978, "ECCENTRICITY": 0.00108924, "INCLINATION": 97.4766, "RA_OF_ASC_NODE": 41.569, "ARG_OF_PERICENTER": 72.2635, "MEAN_ANOMALY": 287.9788, "EPHEMERIS_TYPE": 0, "CLASSIFICATION_TYPE": "U", "NORAD_CAT_ID": 41599, "ELEMENT_SET_NO": 999, "REV_AT_EPOCH": 52503, "BSTAR": 0.00026194832, "MEAN_MOTION_DOT": 5.461e-05, "MEAN_MOTION_DDOT": 0}, "tle": {"line1": "1 41599U 16040A   25344.29394392  .00005461  00000+0  26195-3 0  9999", "line2": "2 41599  97.4766  41.5690 0010892  72.2635 287.9788 15.19253978525033"}}, "geometry": {"type": "Point", "coordinates": [43.855737328426095, -14.621849628170411]}}, {"type": "Feature", "properties": {"norad_id": 41601, "name": "SKYSAT-C1", "group": "resource", "lat": -59.74837545210282, "lon": 33.88402620809173, "alt_km": 475.2086023909351, "timestamp": "2025-12-10T14:53:36.779932+00:00", "meta": {"OBJECT_NAME": "SKYSAT-C1", "OBJECT_ID": "2016-040C", "EPOCH": "2025-12-10T01:03:12.196224", "MEAN_MOTION": 15.32510525, "ECCENTRICITY": 0.00026802, "INCLINATION": 96.9824, "RA_OF_ASC_NODE": 21.2092, "ARG_OF_PERICENTER": 23.5908, "MEAN_ANOMALY": 336.5457, "EPHEMERIS_TYPE": 0, "CLASSIFICATION_TYPE": "U", "NORAD_CAT_ID": 41601, "ELEMENT_SET_NO": 999, "REV_AT_EPOCH": 52886, "BSTAR": 0.00041563234, "MEAN_MOTION_DOT": 0.00012984, "MEAN_MOTION_DDOT": 0}, "tle": {"line1": "1 41601U 16040C   25344.04389116  .00012984  00000+0  41563-3 0  9998", "line2": "2 41601  96.9824  21.2092 0002680  23.5908 336.5457 15.32510525528862"}}, "geometry": {"type": "Point", "coordinates": [33.88402620809173, -59.74837545210282]}}, {"type": "Feature", "properties": {"norad_id": 41603, "name": "LAPAN-A3", "group": "resource", "lat": 82.7490108172923, "lon": -117.45216596010802, "alt_km": 466.0145526039314, "timestamp": "2025-12-10T14:53:36.779941+00:00", "meta": {"OBJECT_NAME": "LAPAN-A3", "OBJECT_ID": "2016-040E", "EPOCH": "2025-12-10T06:39:23.958432", "MEAN_MOTION": 15.31519026, "ECCENTRICITY": 0.00099434, "INCLINATION": 97.1433, "RA_OF_ASC_NODE": 341.9229, "ARG_OF_PERICENTER": 343.431, "MEAN_ANOMALY": 16.6605, "EPHEMERIS_TYPE": 0, "CLASSIFICATION_TYPE": "U", "NORAD_CAT_ID": 41603, "ELEMENT_SET_NO": 999, "REV_AT_EPOCH": 52588, "BSTAR": 0.0001814253, "MEAN_MOTION_DOT": 5.455e-05, "MEAN_MOTION_DDOT": 0}, "tle": {"line1": "1 41603U 16040E   25344.27736063  .00005455  00000+0  18143-3 0  9995", "line2": "2 41603  97.1433 341.9229 0009943 343.4310  16.6605 15.31519026525881"}}, "geometry": {"type": "Point", "coordinates": [-117.45216596010802, 82.7490108172923]}}, {"type": "Feature", "properties": {"norad_id": 41604, "name": "BIROS", "group": "resource", "lat": -14.531945832765357, "lon": -165.87505705647393, "alt_km": 309.0038999600238, "timestamp": "2025-12-10T14:53:36.779962+00:00", "meta": {"OBJECT_NAME": "BIROS", "OBJECT_ID": "2016-040F", "EPOCH": "2025-12-10T01:58:59.670912", "MEAN_MOTION": 15.88522659, "ECCENTRICITY": 0.00031678, "INCLINATION": 97.0703, "RA_OF_ASC_NODE": 15.4098, "ARG_OF_PERICENTER": 156.5515, "MEAN_ANOMALY": 203.5903, "EPHEMERIS_TYPE": 0, "CLASSIFICATION_TYPE": "U", "NORAD_CAT_ID": 41604, "ELEMENT_SET_NO": 999, "REV_AT_EPOCH": 52830, "BSTAR": 0.00072041907, "MEAN_MOTION_DOT": 0.00203476, "MEAN_MOTION_DDOT": 0}, "tle": {"line1": "1 41604U 16040F   25344.08263508  .00203476  00000+0  72042-3 0  9995", "line2": "2 41604  97.0703  15.4098 0003167 156.5515 203.5903 15.88522659528306"}}, "geometry": {"type": "Point", "coordinates": [-165.87505705647393, -14.531945832765357]}}, {"type": "Feature", "properties": {"norad_id": 41727, "name": "GAOFEN-3", "group": "resource", "lat": -8.687605832610092, "lon": 168.9445038559651, "alt_km": 755.8314504094778, "timestamp": "2025-12-10T14:53:36.779972+00:00", "meta": {"OBJECT_NAME": "GAOFEN-3", "OBJECT_ID": "2016-049A", "EPOCH": "2025-12-10T07:21:40.772160", "MEAN_MOTION": 14.42212677, "ECCENTRICITY": 0.00014991, "INCLINATION": 98.4038, "RA_OF_ASC_NODE": 349.9298, "ARG_OF_PERICENTER": 64.1185, "MEAN_ANOMALY": 296.016, "EPHEMERIS_TYPE": 0, "CLASSIFICATION_TYPE": "U", "NORAD_CAT_ID": 41727, "ELEMENT_SET_NO": 999, "REV_AT_EPOCH": 49142, "BSTAR": 6.4867596e-05, "MEAN_MOTION_DOT": 1.7e-06, "MEAN_MOTION_DDOT": 0}, "tle": {"line1": "1 41727U 16049A   25344.30672190  .00000170  00000+0  64868-4 0  9990", "line2": "2 41727  98.4038 349.9298 0001499  64.1185 296.0160 14.42212677491427"}}, "geometry": {"type": "Point", "coordinates": [168.9445038559651, -8.687605832610092]}}, {"type": "Feature", "properties": {"norad_id": 41771, "name": "SKYSAT-C4", "group": "resource", "lat": 18.35554724050473, "lon": -167.7736747876594, "alt_km": 439.4655671616574, "timestamp": "2025-12-10T14:53:36.779981+00:00", "meta": {"OBJECT_NAME": "SKYSAT-C4", "OBJECT_ID": "2016-058B", "EPOCH": "2025-12-10T07:58:00.532704", "MEAN_MOTION": 15.42137296, "ECCENTRICITY": 0.00012634, "INCLINATION": 96.9376, "RA_OF_ASC_NODE": 9.6363, "ARG_OF_PERICENTER": 134.0964, "MEAN_ANOMALY": 226.0388, "EPHEMERIS_TYPE": 0, "CLASSIFICATION_TYPE": "U", "NORAD_CAT_ID": 41771, "ELEMENT_SET_NO": 999, "REV_AT_EPOCH": 51630, "BSTAR": 0.0004835877, "MEAN_MOTION_DOT": 0.00020656, "MEAN_MOTION_DDOT": 0}, "tle": {"line1": "1 41771U 16058B   25344.33195061  .00020656  00000+0  48359-3 0  9996", "line2": "2 41771  96.9376   9.6363 0001263 134.0964 226.0388 15.42137296516302"}}, "geometry": {"type": "Point", "coordinates": [-167.7736747876594, 18.35554724050473]}}, {"type": "Feature", "properties": {"norad_id": 41772, "name": "SKYSAT-C5", "group": "resource", "lat": 50.13388079544559, "lon": -142.989987310975, "alt_km": 453.8959248701849, "timestamp": "2025-12-10T14:53:36.779991+00:00", "meta": {"OBJECT_NAME": "SKYSAT-C5", "OBJECT_ID": "2016-058C", "EPOCH": "2025-12-10T01:49:06.832128", "MEAN_MOTION": 15.35285929, "ECCENTRICITY": 0.00023919, "INCLINATION": 97.076, "RA_OF_ASC_NODE": 27.9328, "ARG_OF_PERICENTER": 140.8238, "MEAN_ANOMALY": 219.3179, "EPHEMERIS_TYPE": 0, "CLASSIFICATION_TYPE": "U", "NORAD_CAT_ID": 41772, "ELEMENT_SET_NO": 999, "REV_AT_EPOCH": 51475, "BSTAR": 0.00041502656, "MEAN_MOTION_DOT": 0.00014155, "MEAN_MOTION_DDOT": 0}, "tle": {"line1": "1 41772U 16058C   25344.07577352  .00014155  00000+0  41503-3 0  9996", "line2": "2 41772  97.0760  27.9328 0002391 140.8238 219.3179 15.35285929514757"}}, "geometry": {"type": "Point", "coordinates": [-142.989987310975, 50.13388079544559]}}, {"type": "Feature", "properties": {"norad_id": 41773, "name": "SKYSAT-C2", "group": "resource", "lat": 55.317429784697715, "lon": -160.48088190197439, "alt_km": 448.92626434831345, "timestamp": "2025-12-10T14:53:36.780000+00:00", "meta": {"OBJECT_NAME": "SKYSAT-C2", "OBJECT_ID": "2016-058D", "EPOCH": "2025-12-10T08:06:25.640064", "MEAN_MOTION": 15.37180734, "ECCENTRICITY": 0.00044775, "INCLINATION": 97.0364, "RA_OF_ASC_NODE": 8.9661, "ARG_OF_PERICENTER": 40.507, "MEAN_ANOMALY": 319.6508, "EPHEMERIS_TYPE": 0, "CLASSIFICATION_TYPE": "U", "NORAD_CAT_ID": 41773, "ELEMENT_SET_NO": 999, "REV_AT_EPOCH": 51599, "BSTAR": 0.00045090198, "MEAN_MOTION_DOT": 0.00016358, "MEAN_MOTION_DDOT": 0}, "tle": {"line1": "1 41773U 16058D   25344.33779676  .00016358  00000+0  45090-3 0  9991", "line2": "2 41773  97.0364   8.9661 0004477  40.5070 319.6508 15.37180734515991"}}, "geometry": {"type": "Point", "coordinates": [-160.48088190197439, 55.317429784697715]}}]}